[{"OBJECT_NAME":"STARLINK-31176","OBJECT_ID":"2024-005T","EPOCH":"2026-03-09T11:45:33.515136","MEAN_MOTION":15.26762477,"ECCENTRICITY":0.00013274,"INCLINATION":43.0008,"RA_OF_ASC_NODE":220.8392,"ARG_OF_PERICENTER":240.5194,"MEAN_ANOMALY":119.5525,"EPHEMERIS_TYPE":0,"CLASSIFICATION_TYPE":"U","NORAD_CAT_ID":58745,"ELEMENT_SET_NO":999,"REV_AT_EPOCH":12045,"BSTAR":-0.00012082743,"MEAN_MOTION_DOT":-3.501e-5,"MEAN_MOTION_DDOT":0},{"OBJECT_NAME":"FLOCK 4G-25","OBJECT_ID":"2025-009AP","EPOCH":"2026-03-09T17:53:50.680608","MEAN_MOTION":15.27424196,"ECCENTRICITY":8.276e-5,"INCLINATION":97.4049,"RA_OF_ASC_NODE":151.4141,"ARG_OF_PERICENTER":316.3151,"MEAN_ANOMALY":43.8023,"EPHEMERIS_TYPE":0,"CLASSIFICATION_TYPE":"U","NORAD_CAT_ID":62646,"ELEMENT_SET_NO":999,"REV_AT_EPOCH":6373,"BSTAR":0.00038902475,"MEAN_MOTION_DOT":0.00010373,"MEAN_MOTION_DDOT":0}]
